
# Worst residual: 5.11 km
# MJD 58877.000000 (2020 Jan 29  0:00)
1969-046F = NORAD 03956 = Vela booster
1 03956U 69046F   20029.49919926  .00000000  00000-0  00000-0 0  7224
2 03956 019.5751 340.8928 8060786 266.9748 349.7673 00.46199643    05

# Worst residual: 2.68 km
# MJD 58878.000000 (2020 Jan 30  0:00)
1969-046F = NORAD 03956 = Vela booster
1 03956U 69046F   20030.49919926  .00000000  00000-0  00000-0 0  7226
2 03956 019.5701 340.8629 8063223 267.0139 156.0341 00.46202402    02

# Worst residual: 6.89 km
# MJD 58879.000000 (2020 Jan 31  0:00)
1969-046F = NORAD 03956 = Vela booster
1 03956U 69046F   20031.49919926  .00000000  00000-0  00000-0 0  7227
2 03956 019.5698 340.8606 8062827 267.0214 322.3733 00.46187142    01

# Worst residual: 6.40 km
# MJD 58880.000000 (2020 Feb  1  0:00)
1969-046F = NORAD 03956 = Vela booster
1 03956U 69046F   20032.49919926  .00000000  00000-0  00000-0 0  7228
2 03956 019.5648 340.8213 8064240 267.0829 128.5892 00.46185099    04

# Worst residual: 9.57 km
# MJD 58881.000000 (2020 Feb  2  0:00)
1969-046F = NORAD 03956 = Vela booster
1 03956U 69046F   20033.49919926  .00000000  00000-0  00000-0 0  7229
2 03956 019.5625 340.8053 8067963 267.1172 294.8710 00.46191440    01

# Worst residual: 6.74 km
# MJD 58882.000000 (2020 Feb  3  0:00)
1969-046F = NORAD 03956 = Vela booster
1 03956U 69046F   20034.49919926  .00000000  00000-0  00000-0 0  7220
2 03956 019.5621 340.7568 8067583 267.2131 101.0929 00.46173928    03

# Worst residual: 3.17 km
# MJD 58883.000000 (2020 Feb  4  0:00)
1969-046F = NORAD 03956 = Vela booster
1 03956U 69046F   20035.49919926  .00000000  00000-0  00000-0 0  7221
2 03956 019.5608 340.7564 8068855 267.2508 267.2088 00.46181595    05

# Worst residual: 14.67 km
# MJD 58884.000000 (2020 Feb  5  0:00)
1969-046F = NORAD 03956 = Vela booster
1 03956U 69046F   20036.49919926  .00000000  00000-0  00000-0 0  7222
2 03956 019.5606 340.7250 8069557 267.3363 073.4401 00.46186248    01

# Worst residual: 8.95 km
# MJD 58885.000000 (2020 Feb  6  0:00)
1969-046F = NORAD 03956 = Vela booster
1 03956U 69046F   20037.49919926  .00000000  00000-0  00000-0 0  7223
2 03956 019.5606 340.7611 8064811 267.3329 239.6677 00.46179406    01

# Worst residual: 11.45 km
# MJD 58886.000000 (2020 Feb  7  0:00)
1969-046F = NORAD 03956 = Vela booster
1 03956U 69046F   20038.49919926  .00000000  00000-0  00000-0 0  7224
2 03956 019.5583 340.7644 8062335 267.3580 045.8447 00.46190103    08

# Worst residual: 1.84 km
# MJD 58887.000000 (2020 Feb  8  0:00)
1969-046F = NORAD 03956 = Vela booster
1 03956U 69046F   20039.49919926  .00000000  00000-0  00000-0 0  7225
2 03956 019.5552 340.7513 8062336 267.3797 212.2009 00.46205820    07

# Worst residual: 7.98 km
# MJD 58888.000000 (2020 Feb  9  0:00)
1969-046F = NORAD 03956 = Vela booster
1 03956U 69046F   20040.49919926  .00000000  00000-0  00000-0 0  7227
2 03956 019.5530 340.7572 8057739 267.3791 018.4431 00.46211932    09

# Worst residual: 4.07 km
# MJD 58889.000000 (2020 Feb 10  0:00)
1969-046F = NORAD 03956 = Vela booster
1 03956U 69046F   20041.49919926  .00000000  00000-0  00000-0 0  7228
2 03956 019.5477 340.7198 8062059 267.4269 184.6965 00.46205207    01

# Worst residual: 8.35 km
# MJD 58890.000000 (2020 Feb 11  0:00)
1969-046F = NORAD 03956 = Vela booster
1 03956U 69046F   20042.49919926  .00000000  00000-0  00000-0 0  7229
2 03956 019.5481 340.7005 8060467 267.4691 350.9653 00.46223537    01

# Worst residual: 3.54 km
# MJD 58891.000000 (2020 Feb 12  0:00)
1969-046F = NORAD 03956 = Vela booster
1 03956U 69046F   20043.49919926  .00000000  00000-0  00000-0 0  7220
2 03956 019.5441 340.6774 8063859 267.5130 157.1828 00.46195115    07

# Worst residual: 8.15 km
# MJD 58892.000000 (2020 Feb 13  0:00)
1969-046F = NORAD 03956 = Vela booster
1 03956U 69046F   20044.49919926  .00000000  00000-0  00000-0 0  7221
2 03956 019.5443 340.6723 8063485 267.5462 323.4212 00.46197089    03

# Worst residual: 2.60 km
# MJD 58893.000000 (2020 Feb 14  0:00)
1969-046F = NORAD 03956 = Vela booster
1 03956U 69046F   20045.49919926  .00000000  00000-0  00000-0 0  7222
2 03956 019.5424 340.6533 8064268 267.5935 129.6690 00.46195157    06

# Worst residual: 8.69 km
# MJD 58894.000000 (2020 Feb 15  0:00)
1969-046F = NORAD 03956 = Vela booster
1 03956U 69046F   20046.49919926  .00000000  00000-0  00000-0 0  7223
2 03956 019.5408 340.6835 8062810 267.5808 295.9300 00.46180736    05

# Worst residual: 8.63 km
# MJD 58895.000000 (2020 Feb 16  0:00)
1969-046F = NORAD 03956 = Vela booster
1 03956U 69046F   20047.49919926  .00000000  00000-0  00000-0 0  7224
2 03956 019.5406 340.6435 8062533 267.6563 102.1631 00.46187069    02

# Worst residual: 4.50 km
# MJD 58896.000000 (2020 Feb 17  0:00)
1969-046F = NORAD 03956 = Vela booster
1 03956U 69046F   20048.49919926  .00000000  00000-0  00000-0 0  7225
2 03956 019.5396 340.6556 8062755 267.6548 268.4600 00.46190302    09

# Worst residual: 10.99 km
# MJD 58897.000000 (2020 Feb 18  0:00)
1969-046F = NORAD 03956 = Vela booster
1 03956U 69046F   20049.49919926  .00000000  00000-0  00000-0 0  7226
2 03956 019.5394 340.6191 8062942 267.7236 074.6908 00.46177117    02

# Worst residual: 2.87 km
# MJD 58898.000000 (2020 Feb 19  0:00)
1969-046F = NORAD 03956 = Vela booster
1 03956U 69046F   20050.49919926  .00000000  00000-0  00000-0 0  7228
2 03956 019.5378 340.6061 8064641 267.7448 240.9959 00.46197518    04

# Worst residual: 10.57 km
# MJD 58899.000000 (2020 Feb 20  0:00)
1969-046F = NORAD 03956 = Vela booster
1 03956U 69046F   20051.49919926  .00000000  00000-0  00000-0 0  7229
2 03956 019.5391 340.5784 8064181 267.7971 047.2448 00.46189577    07

# Worst residual: 2.50 km
# MJD 58900.000000 (2020 Feb 21  0:00)
1969-046F = NORAD 03956 = Vela booster
1 03956U 69046F   20052.49919926  .00000000  00000-0  00000-0 0  7220
2 03956 019.5363 340.5597 8065324 267.8332 213.5214 00.46197836    06

# Worst residual: 6.04 km
# MJD 58901.000000 (2020 Feb 22  0:00)
1969-046F = NORAD 03956 = Vela booster
1 03956U 69046F   20053.49919926  .00000000  00000-0  00000-0 0  7221
2 03956 019.5372 340.5398 8063245 267.8754 019.7624 00.46213723    08

# Worst residual: 1.40 km
# MJD 58902.000000 (2020 Feb 23  0:00)
1969-046F = NORAD 03956 = Vela booster
1 03956U 69046F   20054.49919926  .00000000  00000-0  00000-0 0  7222
2 03956 019.5345 340.5284 8064788 267.9079 186.0355 00.46202259    07

# Worst residual: 7.22 km
# MJD 58903.000000 (2020 Feb 24  0:00)
1969-046F = NORAD 03956 = Vela booster
1 03956U 69046F   20055.49919926  .00000000  00000-0  00000-0 0  7223
2 03956 019.5344 340.5254 8061554 267.9294 352.2805 00.46212713    03

# Worst residual: 1.46 km
# MJD 58904.000000 (2020 Feb 25  0:00)
1969-046F = NORAD 03956 = Vela booster
1 03956U 69046F   20056.49919926  .00000000  00000-0  00000-0 0  7224
2 03956 019.5306 340.5052 8064132 267.9606 158.5578 00.46206486    03
